{
  "type": "FeatureCollection",
  "features": [
    {
      "type": "Feature",
      "properties": {
        "norad_id": 66732,
        "name": "FLOCK 4H-29",
        "group": "last-30-days",
        "lat": 35.1400603244736,
        "lon": -106.35658159060493,
        "alt_km": 511.35510294166943,
        "timestamp": "2025-12-22T18:58:52.138397+00:00",
        "meta_object_name": "FLOCK 4H-29",
        "meta_object_id": "2025-276BU",
        "meta_epoch": "2025-12-22T05:40:56.877888",
        "meta_mean_motion": 15.17127649,
        "meta_eccentricity": 0.00028206,
        "meta_inclination": 97.4409,
        "meta_ra_of_asc_node": 67.8213,
        "meta_arg_of_pericenter": 197.3348,
        "meta_mean_anomaly": 162.779,
        "meta_ephemeris_type": 0,
        "meta_classification_type": "U",
        "meta_norad_cat_id": 66732,
        "meta_element_set_no": 999,
        "meta_rev_at_epoch": 356,
        "meta_bstar": -0.0050347953,
        "meta_mean_motion_dot": -0.00098508,
        "meta_mean_motion_ddot": 0,
        "tle_line1": "1 66732U 25276BU  25356.23676942 -.00098508  00000+0 -50348-2 0  9999",
        "tle_line2": "2 66732  97.4409  67.8213 0002820 197.3348 162.7790 15.17127649  3562"
      },
      "geometry": {
        "type": "Point",
        "coordinates": [
          -106.35658159060493,
          35.1400603244736
        ]
      }
    },
    {
      "type": "Feature",
      "properties": {
        "norad_id": 66733,
        "name": "FLOCK 4H-30",
        "group": "last-30-days",
        "lat": 40.90171413428509,
        "lon": -105.11492053494405,
        "alt_km": 512.4190681866203,
        "timestamp": "2025-12-22T18:58:52.138407+00:00",
        "meta_object_name": "FLOCK 4H-30",
        "meta_object_id": "2025-276BV",
        "meta_epoch": "2025-12-22T06:00:02.000160",
        "meta_mean_motion": 15.1725001,
        "meta_eccentricity": 0.00032887,
        "meta_inclination": 97.4433,
        "meta_ra_of_asc_node": 67.8508,
        "meta_arg_of_pericenter": 268.3903,
        "meta_mean_anomaly": 157.9051,
        "meta_ephemeris_type": 0,
        "meta_classification_type": "U",
        "meta_norad_cat_id": 66733,
        "meta_element_set_no": 999,
        "meta_rev_at_epoch": 299,
        "meta_bstar": -0.00081213407,
        "meta_mean_motion_dot": -0.00016181,
        "meta_mean_motion_ddot": 0,
        "tle_line1": "1 66733U 25276BV  25356.25002315 -.00016181  00000+0 -81213-3 0  9992",
        "tle_line2": "2 66733  97.4433  67.8508 0003288 268.3903 157.9051 15.17250010  2993"
      },
      "geometry": {
        "type": "Point",
        "coordinates": [
          -105.11492053494405,
          40.90171413428509
        ]
      }
    },
    {
      "type": "Feature",
      "properties": {
        "norad_id": 66734,
        "name": "FLOCK 4H-31",
        "group": "last-30-days",
        "lat": 38.628957746366744,
        "lon": -105.64562076586806,
        "alt_km": 508.66706290997445,
        "timestamp": "2025-12-22T18:58:52.138417+00:00",
        "meta_object_name": "FLOCK 4H-31",
        "meta_object_id": "2025-276BW",
        "meta_epoch": "2025-12-22T05:42:14.133312",
        "meta_mean_motion": 15.17606016,
        "meta_eccentricity": 0.00039846,
        "meta_inclination": 97.4368,
        "meta_ra_of_asc_node": 67.8194,
        "meta_arg_of_pericenter": 219.9674,
        "meta_mean_anomaly": 140.1267,
        "meta_ephemeris_type": 0,
        "meta_classification_type": "U",
        "meta_norad_cat_id": 66734,
        "meta_element_set_no": 999,
        "meta_rev_at_epoch": 356,
        "meta_bstar": 0.014847069,
        "meta_mean_motion_dot": 0.00311254,
        "meta_mean_motion_ddot": 0,
        "tle_line1": "1 66734U 25276BW  25356.23766358  .00311254  00000+0  14847-1 0  9999",
        "tle_line2": "2 66734  97.4368  67.8194 0003984 219.9674 140.1267 15.17606016  3560"
      },
      "geometry": {
        "type": "Point",
        "coordinates": [
          -105.64562076586806,
          38.628957746366744
        ]
      }
    },
    {
      "type": "Feature",
      "properties": {
        "norad_id": 66735,
        "name": "FLOCK 4H-32",
        "group": "last-30-days",
        "lat": 42.48478119629435,
        "lon": -104.74499787120325,
        "alt_km": 512.2025343410878,
        "timestamp": "2025-12-22T18:58:52.138428+00:00",
        "meta_object_name": "FLOCK 4H-32",
        "meta_object_id": "2025-276BX",
        "meta_epoch": "2025-12-22T05:42:58.701024",
        "meta_mean_motion": 15.17215701,
        "meta_eccentricity": 0.00035504,
        "meta_inclination": 97.4431,
        "meta_ra_of_asc_node": 67.8355,
        "meta_arg_of_pericenter": 263.7962,
        "meta_mean_anomaly": 96.2867,
        "meta_ephemeris_type": 0,
        "meta_classification_type": "U",
        "meta_norad_cat_id": 66735,
        "meta_element_set_no": 999,
        "meta_rev_at_epoch": 356,
        "meta_bstar": 0.00053990561,
        "meta_mean_motion_dot": 0.00010676,
        "meta_mean_motion_ddot": 0,
        "tle_line1": "1 66735U 25276BX  25356.23817941  .00010676  00000+0  53991-3 0  9994",
        "tle_line2": "2 66735  97.4431  67.8355 0003550 263.7962  96.2867 15.17215701  3561"
      },
      "geometry": {
        "type": "Point",
        "coordinates": [
          -104.74499787120325,
          42.48478119629435
        ]
      }
    },
    {
      "type": "Feature",
      "properties": {
        "norad_id": 66736,
        "name": "FLOCK 4H-33",
        "group": "last-30-days",
        "lat": -47.10617647849908,
        "lon": -119.67347784742778,
        "alt_km": 517.1709833016394,
        "timestamp": "2025-12-22T18:58:52.138438+00:00",
        "meta_object_name": "FLOCK 4H-33",
        "meta_object_id": "2025-276BY",
        "meta_epoch": "2025-12-22T02:09:52.816032",
        "meta_mean_motion": 15.18273812,
        "meta_eccentricity": 0.00025733,
        "meta_inclination": 97.4427,
        "meta_ra_of_asc_node": 67.726,
        "meta_arg_of_pericenter": 162.7594,
        "meta_mean_anomaly": 197.3728,
        "meta_ephemeris_type": 0,
        "meta_classification_type": "U",
        "meta_norad_cat_id": 66736,
        "meta_element_set_no": 999,
        "meta_rev_at_epoch": 354,
        "meta_bstar": 0.00062403808,
        "meta_mean_motion_dot": 0.00012734,
        "meta_mean_motion_ddot": 0,
        "tle_line1": "1 66736U 25276BY  25356.09019463  .00012734  00000+0  62404-3 0  9998",
        "tle_line2": "2 66736  97.4427  67.7260 0002573 162.7594 197.3728 15.18273812  3549"
      },
      "geometry": {
        "type": "Point",
        "coordinates": [
          -119.67347784742778,
          -47.10617647849908
        ]
      }
    },
    {
      "type": "Feature",
      "properties": {
        "norad_id": 66737,
        "name": "FLOCK 4H-34",
        "group": "last-30-days",
        "lat": -38.113997463989236,
        "lon": -117.47242894601702,
        "alt_km": 516.757518081642,
        "timestamp": "2025-12-22T18:58:52.138450+00:00",
        "meta_object_name": "FLOCK 4H-34",
        "meta_object_id": "2025-276BZ",
        "meta_epoch": "2025-12-22T05:22:01.645824",
        "meta_mean_motion": 15.18144604,
        "meta_eccentricity": 0.00024019,
        "meta_inclination": 97.4451,
        "meta_ra_of_asc_node": 67.8576,
        "meta_arg_of_pericenter": 173.6501,
        "meta_mean_anomaly": 186.4764,
        "meta_ephemeris_type": 0,
        "meta_classification_type": "U",
        "meta_norad_cat_id": 66737,
        "meta_element_set_no": 999,
        "meta_rev_at_epoch": 281,
        "meta_bstar": 0.00062912151,
        "meta_mean_motion_dot": 0.00012791,
        "meta_mean_motion_ddot": 0,
        "tle_line1": "1 66737U 25276BZ  25356.22363016  .00012791  00000+0  62912-3 0  9997",
        "tle_line2": "2 66737  97.4451  67.8576 0002401 173.6501 186.4764 15.18144604  2811"
      },
      "geometry": {
        "type": "Point",
        "coordinates": [
          -117.47242894601702,
          -38.113997463989236
        ]
      }
    },
    {
      "type": "Feature",
      "properties": {
        "norad_id": 66738,
        "name": "FLOCK 4H-35",
        "group": "last-30-days",
        "lat": -46.846937157643175,
        "lon": -119.60562145224075,
        "alt_km": 517.6637877721014,
        "timestamp": "2025-12-22T18:58:52.138461+00:00",
        "meta_object_name": "FLOCK 4H-35",
        "meta_object_id": "2025-276CA",
        "meta_epoch": "2025-12-22T02:09:55.235232",
        "meta_mean_motion": 15.18231333,
        "meta_eccentricity": 0.00023005,
        "meta_inclination": 97.4406,
        "meta_ra_of_asc_node": 67.7183,
        "meta_arg_of_pericenter": 151.7865,
        "meta_mean_anomaly": 208.3494,
        "meta_ephemeris_type": 0,
        "meta_classification_type": "U",
        "meta_norad_cat_id": 66738,
        "meta_element_set_no": 999,
        "meta_rev_at_epoch": 283,
        "meta_bstar": 0.00043096749,
        "meta_mean_motion_dot": 8.758e-05,
        "meta_mean_motion_ddot": 0,
        "tle_line1": "1 66738U 25276CA  25356.09022263  .00008758  00000+0  43097-3 0  9990",
        "tle_line2": "2 66738  97.4406  67.7183 0002300 151.7865 208.3494 15.18231333  2835"
      },
      "geometry": {
        "type": "Point",
        "coordinates": [
          -119.60562145224075,
          -46.846937157643175
        ]
      }
    }
  ]
}